OBJECT_NAME,OBJECT_ID,EPOCH,MEAN_MOTION,ECCENTRICITY,INCLINATION,RA_OF_ASC_NODE,ARG_OF_PERICENTER,MEAN_ANOMALY,EPHEMERIS_TYPE,CLASSIFICATION_TYPE,NORAD_CAT_ID,ELEMENT_SET_NO,REV_AT_EPOCH,BSTAR,MEAN_MOTION_DOT,MEAN_MOTION_DDOT
INTELSAT 902 (IS-902),2001-039A,2026-06-05T04:43:25.381920,1.00271322,.0004263,6.0882,71.9274,0.2969,202.1539,0,U,26900,999,9057,0,-.272E-5,0
INTELSAT 904 (IS-904),2002-007A,2026-06-05T06:01:34.581216,1.00270624,.000723,6.8900,69.3272,359.5843,243.6787,0,U,27380,999,5164,0,-.215E-5,0
DIRECTV 5 (TEMPO 1),2002-023A,2026-06-05T21:32:53.812320,1.00271802,.000348,4.8484,75.4503,7.2586,24.7378,0,U,27426,999,8801,0,-.45E-6,0
INTELSAT 905 (IS-905),2002-027A,2026-06-05T11:20:38.810688,1.00272550,.00041976,6.7238,69.9406,12.6738,204.2394,0,U,27438,999,5124,0,.105E-5,0
GALAXY 3C (G-3C),2002-030A,2026-06-05T21:37:15.892032,1.00271858,.0001916,3.7011,78.1277,30.0948,15.5711,0,U,27445,999,4638,0,-.14E-5,0
INTELSAT 906 (IS-906),2002-041A,2026-06-05T19:57:21.766752,1.00270686,.0004699,5.7751,73.0591,357.6074,187.0703,0,U,27513,999,8691,0,.25E-6,0
GALAXY 13 (HORIZONS-1),2003-044A,2026-06-05T23:04:15.495744,1.00272172,.0002079,1.3913,83.9931,344.4924,21.9442,0,U,27954,999,4646,0,.145E-5,0
INTELSAT 10-02,2004-022A,2026-06-05T22:04:06.763872,1.00270378,.000027,0.0044,332.5454,174.1769,77.6479,0,U,28358,999,8044,0,.2E-7,0
DIRECTV 8,2005-019A,2026-06-05T23:13:03.741024,1.00269699,.0003071,0.0170,344.9483,94.3455,44.3137,0,U,28659,999,7696,0,0,0
GALAXY 28 (G-28),2005-022A,2026-06-05T20:13:59.511360,1.00270946,.0002751,3.2705,79.0674,354.6517,96.9387,0,U,28702,999,5186,0,-.188E-5,0
GALAXY 16 (G-16),2006-023A,2026-06-05T23:11:54.208032,1.00272353,.0002817,0.0286,192.0012,240.6960,70.6719,0,U,29236,999,7286,0,-.114E-5,0
DIRECTV 9S,2006-043A,2026-06-05T23:18:10.748736,1.00271874,.0005149,2.3912,81.0371,4.6639,57.0559,0,U,29494,999,5127,0,-.101E-5,0
GALAXY 17 (G-17),2007-016B,2026-06-05T23:22:47.805888,1.00272657,.0004924,2.9432,80.0419,12.8806,67.1836,0,U,31307,999,6969,0,-.194E-5,0
INTELSAT 11 (IS-11),2007-044B,2026-06-05T16:03:55.706400,0.99053683,.0001716,3.5350,78.8086,76.7099,155.9709,0,U,32253,999,6833,0,-.166E-5,0
HORIZONS-2,2007-063B,2026-06-05T21:03:30.295008,1.00273157,.0004143,2.5724,80.7645,353.0474,62.5945,0,U,32388,999,6770,0,-.241E-5,0
DIRECTV 11,2008-013A,2026-06-05T23:11:54.208032,1.00272158,.0000398,0.0127,221.2849,171.6578,110.2496,0,U,32729,999,4548,0,-.113E-5,0
GALAXY 18 (G-18),2008-024A,2026-06-05T23:11:56.348160,1.00271875,.000327,0.0170,54.5638,31.0354,33.7696,0,U,32951,999,4574,0,.38E-6,0
INTELSAT 25 (IS-25),2008-034A,2026-06-05T19:14:18.310848,0.99015563,.00017445,2.6787,80.4459,15.9471,258.8671,0,U,33153,999,6557,0,-.191E-5,0
GALAXY 19 (G-19),2008-045A,2026-06-05T23:19:25.629024,1.00270450,.000345,0.0129,38.0141,53.5490,55.6855,0,U,33376,999,6479,0,-.126E-5,0
FM-5,2009-034A,2026-06-05T23:22:25.341888,1.00272881,.000046,0.0138,295.0076,17.7523,206.0883,0,U,35493,999,4653,0,-.188E-5,0
INTELSAT 14 (IS-14),2009-064A,2026-06-05T21:51:29.530080,1.00272189,.0002874,0.0140,319.5488,130.0185,87.6556,0,U,36097,999,6049,0,-.261E-5,0
INTELSAT 15 (IS-15),2009-067A,2026-06-05T22:28:41.405376,1.00272291,.0002427,0.0149,325.4093,111.7222,239.5562,0,U,36106,999,4111,0,-.173E-5,0
DIRECTV 12,2009-075A,2026-06-05T21:35:01.108032,1.00272244,.0000405,0.0381,147.1607,263.5052,64.7000,0,U,36131,999,4644,0,-.91E-6,0
INTELSAT 16 (IS-16),2010-006A,2026-06-05T23:25:17.568192,1.00271596,.0002227,0.0177,37.3452,49.0346,83.1635,0,U,36397,999,5954,0,-.232E-5,0
XM-5,2010-053A,2026-06-05T23:14:11.133024,1.00271495,.0002709,0.0635,273.1776,279.5350,295.0394,0,U,37185,999,5737,0,-.1E-6,0
INTELSAT 17 (IS-17),2010-065B,2026-06-05T22:23:11.931072,1.00272048,.0002415,0.0057,300.3855,139.6458,216.1169,0,U,37238,999,5313,0,.11E-6,0
INTELSAT 28 (IS-28),2011-016A,2026-06-05T21:55:21.659232,1.00269679,.0004007,1.7764,82.7620,352.2434,116.4896,0,U,37392,999,5317,0,-.212E-5,0
INTELSAT 18 (IS-18),2011-056A,2026-06-05T18:57:54.461088,1.00271873,.00022351,0.0145,304.8950,142.6940,271.1076,0,U,37834,999,5369,0,.66E-6,0
INTELSAT 22 (IS-22),2012-011A,2026-06-05T23:03:06.640128,1.00273226,.0001611,0.0144,49.0504,14.0507,249.1513,0,U,38098,999,707,0,-.46E-6,0
INTELSAT 19 (IS-19),2012-030A,2026-06-05T21:09:00.715392,1.00271554,.000318,0.0176,356.5121,85.4939,295.5592,0,U,38356,999,5033,0,-.44E-6,0
INTELSAT 20 (IS-20),2012-043A,2026-06-05T23:59:38.741280,1.00270594,.0001576,0.0063,86.3874,89.8032,146.6380,0,U,38740,999,5063,0,-.11E-6,0
INTELSAT 21 (IS-21),2012-045A,2026-06-05T21:47:52.374912,1.00273339,.0002089,0.0409,84.2975,357.4811,81.5341,0,U,38749,999,5041,0,-.272E-5,0
INTELSAT 23 (IS-23),2012-057A,2026-06-05T21:49:14.745216,1.00267659,.0000312,0.0101,312.7160,195.8854,20.0219,0,U,38867,999,4984,0,-.272E-5,0
FM-6,2013-058A,2026-06-05T16:23:08.864736,1.00256096,.00024468,0.0108,36.5239,112.0036,235.0340,0,U,39360,999,4595,0,-.1E-7,0
INTELSAT 30 (IS-30),2014-062A,2026-06-05T23:19:55.583040,1.00269128,.0001026,0.0248,46.8492,354.0943,108.3631,0,U,40271,999,668,0,-.138E-5,0
DIRECTV 14,2014-078B,2026-06-05T23:11:25.461024,1.00270815,.0000396,0.0095,330.1162,197.3308,335.5689,0,U,40333,999,4193,0,-.113E-5,0
DIRECTV 15,2015-026A,2026-06-05T13:24:40.648320,1.00275794,.00001718,0.0173,3.8212,199.1088,149.3472,0,U,40663,999,4034,0,-.91E-6,0
SKY MEXICO-1,2015-026B,2026-06-05T23:21:35.233344,1.00272441,.0002291,0.0104,29.3039,62.0381,74.6573,0,U,40664,999,4034,0,-.222E-5,0
INTELSAT 34 (IS-34),2015-039A,2026-06-05T20:05:52.789056,1.00272098,.0000367,0.0086,346.6634,38.6986,114.8818,0,U,40874,999,3952,0,-.273E-5,0
INTELSAT 31 (IS-31),2016-035A,2026-06-05T23:19:55.583040,1.00271599,.0000785,0.0164,261.2051,330.4790,277.6546,0,U,41581,999,3657,0,-.138E-5,0
INTELSAT 36 (IS-36),2016-053A,2026-06-05T10:25:18.215904,1.00271379,.00016708,0.0109,5.6814,335.1773,137.8309,0,U,41747,999,3584,0,-.12E-6,0
INTELSAT 32E (IS-32E),2017-007B,2026-06-05T18:26:41.938080,1.00270705,.0000563,0.0178,344.6873,4.7820,138.2227,0,U,41945,999,3411,0,-.256E-5,0
INTELSAT 35E (IS-35E),2017-041A,2026-06-05T21:54:29.242080,1.00273587,.0001928,0.0114,34.2311,39.7268,114.5186,0,U,42818,999,3270,0,-.225E-5,0
INTELSAT 37E (IS-37E),2017-059A,2026-06-05T21:59:14.731008,1.00271821,.0002583,0.0149,22.0826,69.3321,114.7535,0,U,42950,999,3195,0,-.128E-5,0
AZERSPACE 2 (IS-38),2018-074A,2026-06-05T22:42:18.667296,1.00271693,.0001509,0.0175,331.2890,106.1415,202.6298,0,U,43632,999,2833,0,.149E-5,0
HORIZONS-3E,2018-074B,2026-06-05T19:27:17.307072,1.00272496,.0000772,0.0017,86.4800,194.2338,74.3457,0,U,43633,999,2822,0,-.18E-6,0
AT&T T-16,2019-034A,2026-06-05T14:44:55.316832,1.00272858,.0000379,0.0214,58.9245,229.6587,85.8428,0,U,44333,999,2551,0,-.103E-5,0
INTELSAT 39 (IS-39),2019-049B,2026-06-05T23:57:32.975712,1.00271183,.0000659,0.0179,319.2509,5.3175,351.1995,0,U,44476,999,2501,0,.46E-6,0
GALAXY 30 (G-30),2020-056C,2026-06-05T23:11:26.395008,1.00272545,.000236,0.0178,333.5492,99.4845,44.2055,0,U,46114,999,2118,0,.5E-6,0
GALAXY 33 (G-33),2022-128A,2026-06-05T16:18:24.319296,1.00271983,.00019902,0.0188,41.4682,33.6303,290.6250,0,U,54026,999,1362,0,.91E-6,0
GALAXY 34 (G-34),2022-128B,2026-06-05T23:10:11.514720,1.00274021,.0002001,0.0081,33.4234,61.9178,17.6089,0,U,54027,999,1380,0,.71E-6,0
GALAXY 31 (G-31),2022-153A,2026-06-05T23:12:33.787872,1.00272221,.0001437,0.0199,76.7176,358.9486,45.8690,0,U,54243,999,702,0,.26E-6,0
GALAXY 32 (G-32),2022-153B,2026-06-05T21:38:23.284896,1.00272257,.0002365,0.0124,19.6172,18.0232,90.2909,0,U,54244,999,1303,0,-.162E-5,0
GALAXY 35 (G-35),2022-170A,2026-06-05T23:15:17.601408,1.00272173,.0002212,0.0131,34.8417,43.5377,71.7451,0,U,54741,999,1278,0,-.15E-5,0
GALAXY 36 (G-36),2022-170B,2026-06-05T19:56:16.209024,1.00271802,.0002791,0.0072,280.0470,162.9441,21.3451,0,U,54742,999,1266,0,-.173E-5,0
GALAXY 37 (G-37),2023-112A,2026-06-05T23:10:48.956160,1.00271357,.0002134,0.0177,323.9911,111.4072,39.7034,0,U,57493,999,1043,0,.61E-6,0
